ONEWEB-0392             
1 50472U 21132D   26091.30911854  .00000037  00000+0  61101-4 0  9998
2 50472  87.9191  21.1078 0001465  76.1370 283.9925 13.17651351207992
ONEWEB-0393             
1 50473U 21132E   26091.51246934  .00000044  00000+0  79606-4 0  9999
2 50473  87.9182  21.0907 0001659  76.9528 283.1789 13.17648227208013
ONEWEB-0394             
1 50474U 21132F   26091.46257153  .00000077  00000+0  16369-3 0  9991
2 50474  87.9242 350.6895 0001567  81.3541 278.7769 13.18688730211488
ONEWEB-0395             
1 50475U 21132G   26091.33619817 -.00000427  00000+0 -12411-2 0  9991
2 50475  87.8897  36.3467 0001733  73.6073 286.5246 13.11418214205645
ONEWEB-0396             
1 50476U 21132H   26091.45597456  .00000101  00000+0  22282-3 0  9994
2 50476  87.9244 350.7028 0001632  80.0997 280.0319 13.18688185211521
ONEWEB-0397             
1 50477U 21132J   26091.47081994  .00000036  00000+0  57819-4 0  9994
2 50477  87.9243 350.7000 0001608  85.8490 274.2826 13.18688447211502
ONEWEB-0398             
1 50478U 21132K   26091.53289532 -.00000431  00000+0 -12526-2 0  9995
2 50478  87.8910  36.2907 0002014  70.3626 289.7719 13.11419095205562
ONEWEB-0399             
1 50479U 21132L   26091.36671501  .00000516  00000+0  14210-2 0  9992
2 50479  87.8911  36.3331 0001394  87.7743 272.3544 13.11419113205530
ONEWEB-0400             
1 50480U 21132M   26091.44937192  .00000086  00000+0  18605-3 0  9999
2 50480  87.9245 350.6941 0001858  74.2262 285.9075 13.18688755211492
ONEWEB-0401             
1 50481U 21132N   26091.26629553  .00000077  00000+0  16244-3 0  9996
2 50481  87.9246 350.7265 0001831  85.1182 275.0159 13.18686976211471
ONEWEB-0402             
1 50482U 21132P   26091.45763116  .00000052  00000+0  98080-4 0  9994
2 50482  87.9242 350.6798 0001896  94.5970 265.5379 13.18686357211525
ONEWEB-0403             
1 50483U 21132Q   26091.25473964  .00000056  00000+0  10955-3 0  9990
2 50483  87.9245 350.7432 0001654  77.3494 282.7823 13.18688354211453
ONEWEB-0404             
1 50484U 21132R   26091.34805999 -.00000118  00000+0 -36921-3 0  9990
2 50484  87.8900  36.3420 0001541  75.9224 284.2075 13.11418475205621
ONEWEB-0405             
1 50485U 21132S   26091.26959299  .00000070  00000+0  14529-3 0  9990
2 50485  87.9244 350.7242 0001999  64.6465 295.4874 13.18687428211854
ONEWEB-0406             
1 50486U 21132T   26091.25969076  .00000080  00000+0  17010-3 0  9993
2 50486  87.9234 350.7496 0001292  75.5093 284.6183 13.18687865211486
ONEWEB-0407             
1 50487U 21132U   26091.48072456  .00000103  00000+0  22872-3 0  9994
2 50487  87.9243 350.6914 0001911  81.3541 278.7807 13.18688496211457
ONEWEB-0409             
1 50488U 21132V   26091.34636418 -.00000207  00000+0 -62056-3 0  9999
2 50488  87.8910  36.3249 0001642  73.6984 286.4324 13.11417821205518
