[{"OBJECT_NAME":"ONEWEB-0392","OBJECT_ID":"2021-132D","EPOCH":"2026-04-01T07:25:07.841856","MEAN_MOTION":13.17651351,"ECCENTRICITY":0.0001465,"INCLINATION":87.9191,"RA_OF_ASC_NODE":21.1078,"ARG_OF_PERICENTER":76.137,"MEAN_ANOMALY":283.9925,"EPHEMERIS_TYPE":0,"CLASSIFICATION_TYPE":"U","NORAD_CAT_ID":50472,"ELEMENT_SET_NO":999,"REV_AT_EPOCH":20799,"BSTAR":6.1101e-5,"MEAN_MOTION_DOT":3.7e-7,"MEAN_MOTION_DDOT":0},{"OBJECT_NAME":"ONEWEB-0393","OBJECT_ID":"2021-132E","EPOCH":"2026-04-01T12:17:57.350976","MEAN_MOTION":13.17648227,"ECCENTRICITY":0.0001659,"INCLINATION":87.9182,"RA_OF_ASC_NODE":21.0907,"ARG_OF_PERICENTER":76.9528,"MEAN_ANOMALY":283.1789,"EPHEMERIS_TYPE":0,"CLASSIFICATION_TYPE":"U","NORAD_CAT_ID":50473,"ELEMENT_SET_NO":999,"REV_AT_EPOCH":20801,"BSTAR":7.9606e-5,"MEAN_MOTION_DOT":4.4e-7,"MEAN_MOTION_DDOT":0},{"OBJECT_NAME":"ONEWEB-0394","OBJECT_ID":"2021-132F","EPOCH":"2026-04-01T11:06:06.180192","MEAN_MOTION":13.1868873,"ECCENTRICITY":0.0001567,"INCLINATION":87.9242,"RA_OF_ASC_NODE":350.6895,"ARG_OF_PERICENTER":81.3541,"MEAN_ANOMALY":278.7769,"EPHEMERIS_TYPE":0,"CLASSIFICATION_TYPE":"U","NORAD_CAT_ID":50474,"ELEMENT_SET_NO":999,"REV_AT_EPOCH":21148,"BSTAR":0.00016369,"MEAN_MOTION_DOT":7.7e-7,"MEAN_MOTION_DDOT":0},{"OBJECT_NAME":"ONEWEB-0395","OBJECT_ID":"2021-132G","EPOCH":"2026-04-01T08:04:07.521888","MEAN_MOTION":13.11418214,"ECCENTRICITY":0.0001733,"INCLINATION":87.8897,"RA_OF_ASC_NODE":36.3467,"ARG_OF_PERICENTER":73.6073,"MEAN_ANOMALY":286.5246,"EPHEMERIS_TYPE":0,"CLASSIFICATION_TYPE":"U","NORAD_CAT_ID":50475,"ELEMENT_SET_NO":999,"REV_AT_EPOCH":20564,"BSTAR":-0.0012411,"MEAN_MOTION_DOT":-4.27e-6,"MEAN_MOTION_DDOT":0},{"OBJECT_NAME":"ONEWEB-0396","OBJECT_ID":"2021-132H","EPOCH":"2026-04-01T10:56:36.201984","MEAN_MOTION":13.18688185,"ECCENTRICITY":0.0001632,"INCLINATION":87.9244,"RA_OF_ASC_NODE":350.7028,"ARG_OF_PERICENTER":80.0997,"MEAN_ANOMALY":280.0319,"EPHEMERIS_TYPE":0,"CLASSIFICATION_TYPE":"U","NORAD_CAT_ID":50476,"ELEMENT_SET_NO":999,"REV_AT_EPOCH":21152,"BSTAR":0.00022282,"MEAN_MOTION_DOT":1.01e-6,"MEAN_MOTION_DDOT":0},{"OBJECT_NAME":"ONEWEB-0397","OBJECT_ID":"2021-132J","EPOCH":"2026-04-01T11:17:58.842816","MEAN_MOTION":13.18688447,"ECCENTRICITY":0.0001608,"INCLINATION":87.9243,"RA_OF_ASC_NODE":350.7,"ARG_OF_PERICENTER":85.849,"MEAN_ANOMALY":274.2826,"EPHEMERIS_TYPE":0,"CLASSIFICATION_TYPE":"U","NORAD_CAT_ID":50477,"ELEMENT_SET_NO":999,"REV_AT_EPOCH":21150,"BSTAR":5.7819e-5,"MEAN_MOTION_DOT":3.6e-7,"MEAN_MOTION_DDOT":0},{"OBJECT_NAME":"ONEWEB-0398","OBJECT_ID":"2021-132K","EPOCH":"2026-04-01T12:47:22.155648","MEAN_MOTION":13.11419095,"ECCENTRICITY":0.0002014,"INCLINATION":87.891,"RA_OF_ASC_NODE":36.2907,"ARG_OF_PERICENTER":70.3626,"MEAN_ANOMALY":289.7719,"EPHEMERIS_TYPE":0,"CLASSIFICATION_TYPE":"U","NORAD_CAT_ID":50478,"ELEMENT_SET_NO":999,"REV_AT_EPOCH":20556,"BSTAR":-0.0012526,"MEAN_MOTION_DOT":-4.31e-6,"MEAN_MOTION_DDOT":0},{"OBJECT_NAME":"ONEWEB-0399","OBJECT_ID":"2021-132L","EPOCH":"2026-04-01T08:48:04.176864","MEAN_MOTION":13.11419113,"ECCENTRICITY":0.0001394,"INCLINATION":87.8911,"RA_OF_ASC_NODE":36.3331,"ARG_OF_PERICENTER":87.7743,"MEAN_ANOMALY":272.3544,"EPHEMERIS_TYPE":0,"CLASSIFICATION_TYPE":"U","NORAD_CAT_ID":50479,"ELEMENT_SET_NO":999,"REV_AT_EPOCH":20553,"BSTAR":0.001421,"MEAN_MOTION_DOT":5.16e-6,"MEAN_MOTION_DDOT":0},{"OBJECT_NAME":"ONEWEB-0400","OBJECT_ID":"2021-132M","EPOCH":"2026-04-01T10:47:05.733888","MEAN_MOTION":13.18688755,"ECCENTRICITY":0.0001858,"INCLINATION":87.9245,"RA_OF_ASC_NODE":350.6941,"ARG_OF_PERICENTER":74.2262,"MEAN_ANOMALY":285.9075,"EPHEMERIS_TYPE":0,"CLASSIFICATION_TYPE":"U","NORAD_CAT_ID":50480,"ELEMENT_SET_NO":999,"REV_AT_EPOCH":21149,"BSTAR":0.00018605,"MEAN_MOTION_DOT":8.6e-7,"MEAN_MOTION_DDOT":0},{"OBJECT_NAME":"ONEWEB-0401","OBJECT_ID":"2021-132N","EPOCH":"2026-04-01T06:23:27.933792","MEAN_MOTION":13.18686976,"ECCENTRICITY":0.0001831,"INCLINATION":87.9246,"RA_OF_ASC_NODE":350.7265,"ARG_OF_PERICENTER":85.1182,"MEAN_ANOMALY":275.0159,"EPHEMERIS_TYPE":0,"CLASSIFICATION_TYPE":"U","NORAD_CAT_ID":50481,"ELEMENT_SET_NO":999,"REV_AT_EPOCH":21147,"BSTAR":0.00016244,"MEAN_MOTION_DOT":7.7e-7,"MEAN_MOTION_DDOT":0},{"OBJECT_NAME":"ONEWEB-0402","OBJECT_ID":"2021-132P","EPOCH":"2026-04-01T10:58:59.332224","MEAN_MOTION":13.18686357,"ECCENTRICITY":0.0001896,"INCLINATION":87.9242,"RA_OF_ASC_NODE":350.6798,"ARG_OF_PERICENTER":94.597,"MEAN_ANOMALY":265.5379,"EPHEMERIS_TYPE":0,"CLASSIFICATION_TYPE":"U","NORAD_CAT_ID":50482,"ELEMENT_SET_NO":999,"REV_AT_EPOCH":21152,"BSTAR":9.808e-5,"MEAN_MOTION_DOT":5.2e-7,"MEAN_MOTION_DDOT":0},{"OBJECT_NAME":"ONEWEB-0403","OBJECT_ID":"2021-132Q","EPOCH":"2026-04-01T06:06:49.504896","MEAN_MOTION":13.18688354,"ECCENTRICITY":0.0001654,"INCLINATION":87.9245,"RA_OF_ASC_NODE":350.7432,"ARG_OF_PERICENTER":77.3494,"MEAN_ANOMALY":282.7823,"EPHEMERIS_TYPE":0,"CLASSIFICATION_TYPE":"U","NORAD_CAT_ID":50483,"ELEMENT_SET_NO":999,"REV_AT_EPOCH":21145,"BSTAR":0.00010955,"MEAN_MOTION_DOT":5.6e-7,"MEAN_MOTION_DDOT":0},{"OBJECT_NAME":"ONEWEB-0404","OBJECT_ID":"2021-132R","EPOCH":"2026-04-01T08:21:12.383136","MEAN_MOTION":13.11418475,"ECCENTRICITY":0.0001541,"INCLINATION":87.89,"RA_OF_ASC_NODE":36.342,"ARG_OF_PERICENTER":75.9224,"MEAN_ANOMALY":284.2075,"EPHEMERIS_TYPE":0,"CLASSIFICATION_TYPE":"U","NORAD_CAT_ID":50484,"ELEMENT_SET_NO":999,"REV_AT_EPOCH":20562,"BSTAR":-0.00036921,"MEAN_MOTION_DOT":-1.18e-6,"MEAN_MOTION_DDOT":0},{"OBJECT_NAME":"ONEWEB-0405","OBJECT_ID":"2021-132S","EPOCH":"2026-04-01T06:28:12.834336","MEAN_MOTION":13.18687428,"ECCENTRICITY":0.0001999,"INCLINATION":87.9244,"RA_OF_ASC_NODE":350.7242,"ARG_OF_PERICENTER":64.6465,"MEAN_ANOMALY":295.4874,"EPHEMERIS_TYPE":0,"CLASSIFICATION_TYPE":"U","NORAD_CAT_ID":50485,"ELEMENT_SET_NO":999,"REV_AT_EPOCH":21185,"BSTAR":0.00014529,"MEAN_MOTION_DOT":7.0e-7,"MEAN_MOTION_DDOT":0},{"OBJECT_NAME":"ONEWEB-0406","OBJECT_ID":"2021-132T","EPOCH":"2026-04-01T06:13:57.281664","MEAN_MOTION":13.18687865,"ECCENTRICITY":0.0001292,"INCLINATION":87.9234,"RA_OF_ASC_NODE":350.7496,"ARG_OF_PERICENTER":75.5093,"MEAN_ANOMALY":284.6183,"EPHEMERIS_TYPE":0,"CLASSIFICATION_TYPE":"U","NORAD_CAT_ID":50486,"ELEMENT_SET_NO":999,"REV_AT_EPOCH":21148,"BSTAR":0.0001701,"MEAN_MOTION_DOT":8.0e-7,"MEAN_MOTION_DDOT":0},{"OBJECT_NAME":"ONEWEB-0407","OBJECT_ID":"2021-132U","EPOCH":"2026-04-01T11:32:14.601984","MEAN_MOTION":13.18688496,"ECCENTRICITY":0.0001911,"INCLINATION":87.9243,"RA_OF_ASC_NODE":350.6914,"ARG_OF_PERICENTER":81.3541,"MEAN_ANOMALY":278.7807,"EPHEMERIS_TYPE":0,"CLASSIFICATION_TYPE":"U","NORAD_CAT_ID":50487,"ELEMENT_SET_NO":999,"REV_AT_EPOCH":21145,"BSTAR":0.00022872,"MEAN_MOTION_DOT":1.03e-6,"MEAN_MOTION_DDOT":0},{"OBJECT_NAME":"ONEWEB-0409","OBJECT_ID":"2021-132V","EPOCH":"2026-04-01T08:18:45.865152","MEAN_MOTION":13.11417821,"ECCENTRICITY":0.0001642,"INCLINATION":87.891,"RA_OF_ASC_NODE":36.3249,"ARG_OF_PERICENTER":73.6984,"MEAN_ANOMALY":286.4324,"EPHEMERIS_TYPE":0,"CLASSIFICATION_TYPE":"U","NORAD_CAT_ID":50488,"ELEMENT_SET_NO":999,"REV_AT_EPOCH":20551,"BSTAR":-0.00062056,"MEAN_MOTION_DOT":-2.07e-6,"MEAN_MOTION_DDOT":0}]
